{
  "norad_id": 67518,
  "name": "STARLINK-36412",
  "history": [
    {
      "epoch": "2026-03-28T16:57:47.051712Z",
      "apogee_km": 485.3329734716526,
      "perigee_km": 480.8165122298042,
      "latitude_deg": 4.2332862335490864e-05,
      "longitude_deg": 126.13031195950859,
      "height_km": 483.24769453591324,
      "semi_major_axis_km": 6861.211742850728,
      "eccentricity": 0.00032913,
      "inclination_deg": 43.005,
      "raan_deg": 206.6997,
      "arg_perigee_deg": 259.9402,
      "mean_anomaly_deg": 100.1079,
      "mean_motion_rev_day": 15.27571435
    },
    {
      "epoch": "2026-03-29T00:48:34.951104Z",
      "apogee_km": 483.90842711398,
      "perigee_km": 482.2576175766035,
      "latitude_deg": -5.450959500857617e-05,
      "longitude_deg": 6.264577795976605,
      "height_km": 482.95921120034296,
      "semi_major_axis_km": 6861.220022345291,
      "eccentricity": 0.0001203,
      "inclination_deg": 43.0021,
      "raan_deg": 204.8559,
      "arg_perigee_deg": 263.081,
      "mean_anomaly_deg": 96.9904,
      "mean_motion_rev_day": 15.2756867
    }
  ]
}